#dP2022  4  6  6  0  0.00000000      96 __u+U ITR00 EXT  IAC
## 2204 280800.00000000   900.00000000 59675 0.2500000000000
+  117   C06C07C08C09C10C11C12C13C14C16C19C20C21C22C23C24C25
+        C26C27C28C29C30C32C33C34C35C36C37C38C39C40C41C42C43
+        C44C45C46E01E02E03E04E05E07E08E09E10E11E12E13E14E15
+        E18E19E21E24E25E26E27E30E31E33E34E36G01G02G03G04G05
+        G06G07G08G09G10G11G12G13G14G15G16G17G18G19G20G21G22
+        G23G24G25G26G27G28G29G30G31G32J02J03R01R02R03R04R05
+        R07R08R09R11R12R13R14R15R17R18R19R20R21R22R24  0  0
++         9  8  8  8  8  9 10 10  8  9 10  7  7  9 10  8  7
++         8  9  8  8  9  9  9 10  8  9  8  8  8 10  8  9  8
++         9  8  9  9  8  8  7  8  7  9  7  7  8  8  8  7  9
++         8  9  7  7  8  7  8  7  8  7  7  7 11  7  8  8  8
++         8  7  9  8  8  8  7  8  6  7  7  8  7  6  7  7  8
++         8  7  8  8  7  8  8  7  8  7  9  9  8  9  7  9  8
++         8  7  8  8  9  7  8  8  9  8  9 10  9 10  9  0  0
%c M  cc GPS ccc cccc cccc cccc cccc ccccc ccccc ccccc ccccc
%c cc cc ccc ccc cccc cccc cccc cccc ccccc ccccc ccccc ccccc
%f  0.0000000  0.000000000  0.00000000000  0.000000000000000
%f  0.0000000  0.000000000  0.00000000000  0.000000000000000
%i    0    0    0    0      0      0      0      0         0
%i    0    0    0    0      0      0      0      0         0
/* IAC                                ULTRA-RAPID PREDICTION
/* S/V CLOCKS ARE ALIGNED TO GNSS TIME                      
/* G:C1WC2W R:C1PC2P E:C1XC5X C:C2IC6I J:C1CC2S             
/* PCV:IGS14_2196 OL/AL:FES2004  NONE     YN ORB:CoN CLK:CoN
*  2022 04 06 15 30  0.00000000
PC06 -13682.824083  40000.562250   -701.569249   -254.442849
PC07  -4171.122860  29733.312974 -29561.903975     40.684177
PC08 -17399.103451  22185.641193  31312.623264    242.959857
PC09  -7625.085902  40093.507199 -11198.641452   -672.085396
PC10   3905.405394  32711.204765 -25818.663928    137.034638
PC11  -6284.271397 -19722.098405 -18665.886744    275.319271
PC12   6197.955157 -26960.950831  -3660.730737   -630.570157
PC13  -5921.015127  23644.532453  34491.979245    -68.301804
PC14 -17509.879645 -21570.622905  -2917.014913    455.375007
PC16 -14860.570161  39578.491174   1646.916119    115.047280
PC19  21567.908982  16459.196013  -6451.616891    880.460023
PC20  11845.257643  23030.118882  10373.115567   -868.923454
PC21   5614.014238 -16182.675133 -22012.332487    -64.828443
PC22  19174.034791     65.108430 -20257.189112   -965.464489
PC23 -27242.228497   6042.085291    200.781084   -935.184133
PC24  -2520.503561 -16102.814164  22638.480501   -951.245995
PC25 -22178.545898  -6045.950857  15798.000862   -754.925717
PC26  15868.111946 -16106.098260  16366.383676    755.578190
PC27 -11682.135383  24840.722674  -5102.543001    703.657843
PC28 -17320.250097  10374.940932 -19264.398335     52.186572
PC29  13205.122116  10280.699610  22323.268468    537.747892
PC30   1253.280886  25368.648853  11581.650850    496.492946
PC32  -5588.862938  16186.952756  22052.674957   -964.273409
PC33 -21686.509451 -16368.264456   6423.073674   -969.980617
PC34  -1968.276245 -24900.641688 -12427.042145   -431.582915
PC35  17051.162322  -9974.780131  19685.198652    216.496851
PC36  21694.648021   6876.196819 -16133.336616   -964.837953
PC37 -17230.419871  15417.787777 -15599.988037   -927.945351
PC38 -23769.539330  23349.003722  25788.011145    223.264763
PC39 -16318.911539  38056.570204   8441.888700     34.941615
PC40  -7031.951074  24799.355060 -33349.886908    258.608520
PC41 -19449.109026   -398.193692  20065.430928   -969.046053
PC42 -11140.143468 -23026.385773 -11131.093372   -947.067758
PC43 -12978.707688 -11042.225204 -22104.022760   -931.562250
PC44  10906.435918 -25122.400353   5237.073682    619.113017
PC45  27214.152966  -6230.394288     48.812633    724.330792
PC46   4252.714846  15599.795181 -22747.002423   -257.587800
PE01  27755.609216   9996.579641  -2483.873391   -611.213464
PE02 -27793.796198  -9884.821246   2311.365452    291.099389
PE03 -17694.976663 -12631.080030  20096.508008   -545.199880
PE04  15011.935237  -9237.899748 -23768.498181  -1000.740360
PE05 -10016.647865 -27485.365466   4529.879340   -193.361068
PE07  -3393.438909  26139.426186  13469.475046   -655.909921
PE08 -14718.421521   9615.184063  23817.857396   -507.786869
PE09   3068.339404 -26244.569038 -13346.737174   -475.029929
PE10  20789.789808 -21050.643080   -843.215885   -505.039013
PE11  14205.829463 -23570.707611 -10877.404917   4032.409690
PE12  23852.240187 -15165.702310   8743.887178   4676.251048
PE13 -14718.725915  23551.695535  10264.458167    427.836475
PE14 -20044.297911  -9630.193869 -23518.789252  -1804.603546
PE15 -23822.035885  15161.308882  -8894.817827    753.288327
PE18  15251.650273   -299.076312  18385.400455  -1596.167269
PE19  17146.116017  15158.681082 -18762.791662  -2566.250386
PE21  15467.349973  17462.287364 -18230.890252   -726.892737
PE24   7922.549607 -14943.508486  24275.975762   -546.308671
PE25 -15202.501212 -17503.531731  18399.171532   -569.447033
PE26   3949.534898  17573.112626  23494.673831   -999.175558
PE27  -6443.128241  15425.252416 -24429.758323   -270.145940
PE30 -25002.582660   3554.029132 -15441.032264   -409.074137
PE31  24395.049618  -4325.559229  16203.482982   -494.656558
PE33  18828.129442   2154.679297  22737.700779   -457.869244
PE34 -18964.843959  -1919.599208 -22650.939649   -510.672527
PE36  -2978.671829 -18044.672091 -23267.369272   -355.876128
PG01   9032.142773 -19383.611960 -15804.396746    391.234528
PG02 -21326.090931  15432.871643  -3394.663861   -652.950463
PG03   -871.142461 -16123.895046 -21213.433666   -195.638276
PG04   1280.403674 -26041.248393  -4813.291128   -178.069421
PG05 -15680.544690   8606.858907  19520.867030    -77.345440
PG06 -20635.033658   1526.547960 -16633.815711    257.185203
PG07  -7535.509072 -13752.515237  21799.446309    319.286442
PG08   6939.858139 -21249.351701  14032.883822    -62.829069
PG09  -7374.358641 -24850.566927   5645.011457   -345.419027
PG10  23899.063953  11797.124336   2048.879581   -370.434813
PG11 -23205.908945  12448.826216  -3419.580602    -45.399854
PG12  -4005.040025  14867.614681 -21919.832217   -196.267742
PG13 -12889.359317  13950.625672  18343.944313    289.501790
PG14 -22989.613307 -13126.513767   2633.049319   -100.450415
PG15  -4339.972800  22451.738819  12833.801119    -71.022007
PG16  19698.414776  -2957.986762  17519.692472   -488.878789
PG17 -13052.604292 -13475.238476 -18352.551822    596.897608
PG18   6418.742615  13717.484118  21805.827928    202.092665
PG19 -14630.849177  -5904.109670 -21658.105145    140.853187
PG20 -22663.005744   3954.646985  13066.124819    515.948324
PG21  16949.077432 -19231.488028  -4774.265241    160.188006
PG22  15009.791223   2421.767229 -21382.089460    239.140396
PG23  17476.244571  15984.711150  12111.336169    -12.887188
PG24 -11153.729677  21056.057406 -11589.236946    259.995574
PG25  10804.181433  17673.509533 -17066.904750    308.405116
PG26  25325.441222   3313.325749   7759.692980    196.598334
PG27  12839.492632 -10418.363840  20483.041124    176.225821
PG28 -24139.445453  -8983.746192  -5449.615440    373.504270
PG29   4138.388968  25776.125747   4666.933086   -500.034365
PG30 -15454.345518  -7422.000749  20418.279837   -522.501014
PG31  22291.421517  -3110.517202 -14587.630059   -172.248908
PG32  14963.216243  10174.031145 -19363.815187    -99.832124
PJ02 -29593.081168  15386.746388 -21251.397633     -2.519482
PJ03 -24633.982429  32153.216735  -7113.325494     -1.389672
PR01  15972.889522   8202.858625 -18103.654305      7.604259
PR02   6031.229257 -10321.991217 -22476.919646    514.733421
PR03  -6497.705095 -21226.578081 -12467.066294     54.433672
PR04 -15078.423050 -20116.291742   4329.028697    135.406832
PR05 -15348.822530  -7962.811479  18760.375156     90.673641
PR07   6933.835050  21493.607226  11946.902540     33.535532
PR08  15152.922237  20068.729062  -4291.450319    -64.463845
PR09 -18634.378110   8682.985762 -15136.584907     48.342915
PR11  16405.878624   7546.262386 -18002.831382     41.797818
PR12  25465.839988   -530.595412  -1538.275362     17.792125
PR13  19535.020157  -8035.747855  14281.322641    -20.491964
PR14   1082.327050 -11165.870876  22914.735382     76.228560
PR15 -17005.645456  -7569.564359  17455.295949     97.015596
PR17   6728.046399 -22493.259131 -10004.566237    515.374799
PR18  -4056.902610 -12909.423669 -21596.195790    112.697696
PR19 -12418.087195   1903.450953 -22201.943460   -184.371376
PR20 -15045.371679  18917.370303  -8222.400270    -68.123921
PR21  -5965.053561  22030.564864  11370.266491   -291.217928
PR22   4411.845402  12307.312832  21909.354462   -175.224244
PR24  14591.893724 -19533.911736   7520.431826     87.828950
EOF
